NORAD_CAT_ID,OBJECT_NAME,OBJECT_TYPE,EPOCH,MEAN_MOTION,ECCENTRICITY,INCLINATION,RA_OF_ASC_NODE,ARG_OF_PERICENTER,MEAN_ANOMALY,BSTAR,MEAN_MOTION_DOT,MEAN_MOTION_DDOT,TLE_LINE0,TLE_LINE1,TLE_LINE2,SEMIMAJOR_AXIS,PERIOD,APOGEE,PERIGEE,DECAYED
50808.0,STARLINK-3355,PAYLOAD,2022-09-24 19:13:11,15.08842805,0.0001715,53.2171,63.9596,62.1498,297.9668,0.00015479,2.176e-05,0.0,0 STARLINK-3355,1 50808U 22001F   22267.80083217  .00002176  00000-0  15479-3 0  9999,2 50808  53.2171  63.9596 0001715  62.1498 297.9668 15.08842805 40040,6917.871999999999,95.437,540.923,538.55,0.0
50808.0,STARLINK-3355,PAYLOAD,2022-09-25 17:28:35,15.08846422,0.0001584,53.2165,59.7953,51.7777,308.3358,-6.6259e-06,-3.94e-06,0.0,0 STARLINK-3355,1 50808U 22001F   22268.72818660 -.00000394  00000-0 -66259-5 0  9995,2 50808  53.2165  59.7953 0001584  51.7777 308.3358 15.08846422 41437,6917.861,95.437,540.822,538.63,0.0
50808.0,STARLINK-3355,PAYLOAD,2022-09-26 09:22:27,15.08833459,0.0001658,53.2175,56.8224,56.2359,303.8791,-8.5832e-05,-1.654e-05,0.0,0 STARLINK-3355,1 50808U 22001F   22269.39059287 -.00001654  00000-0 -85832-4 0  9998,2 50808  53.2175  56.8224 0001658  56.2359 303.8791 15.08833459 41533,6917.9,95.438,540.9119999999998,538.618,0.0
50808.0,STARLINK-3355,PAYLOAD,2022-09-26 12:33:13,15.08833914,0.0001605,53.2182,56.2284,57.3492,302.7655,-4.6063e-06,-3.61e-06,0.0,0 STARLINK-3355,1 50808U 22001F   22269.52307836 -.00000361  00000-0 -46063-5 0  9997,2 50808  53.2182  56.2284 0001605  57.3492 302.7655 15.08833914 40300,6917.899,95.438,540.874,538.654,0.0
50808.0,STARLINK-3355,PAYLOAD,2022-09-26 20:30:09,15.08837094,0.0001588999999999,53.2184,54.7414,56.59,303.5244,4.221e-06,-2.21e-06,0.0,0 STARLINK-3355,1 50808U 22001F   22269.85427618 -.00000221  00000-0  42210-5 0  9998,2 50808  53.2184  54.7414 0001589  56.5900 303.5244 15.08837094 40357,6917.889,95.438,540.854,538.655,0.0
50808.0,STARLINK-3355,PAYLOAD,2022-09-27 02:51:41,15.0884202,0.0001635,53.2183,53.5516,55.9398,304.175,-1.9255e-05,-5.94e-06,0.0,0 STARLINK-3355,1 50808U 22001F   22270.11923393 -.00000594  00000-0 -19255-4 0  9996,2 50808  53.2183  53.5516 0001635  55.9398 304.1750 15.08842020 41649,6917.874,95.437,540.87,538.6080000000002,0.0
50808.0,STARLINK-3355,PAYLOAD,2022-09-27 15:34:46,15.08847778,0.0001584,53.2184,51.1728,55.8078,304.3064,0.00011895,1.606e-05,0.0,0 STARLINK-3355,1 50808U 22001F   22270.64914449  .00001606  00000-0  11895-3 0  9990,2 50808  53.2184  51.1728 0001584  55.8078 304.3064 15.08847778 40471,6917.857,95.437,540.817,538.626,0.0
50808.0,STARLINK-3355,PAYLOAD,2022-09-28 09:04:00,15.08843807,0.0001605,53.2184,47.902,56.4465,303.668,0.00010208,1.337e-05,0.0,0 STARLINK-3355,1 50808U 22001F   22271.37778671  .00001337  00000-0  10208-3 0  9994,2 50808  53.2184  47.9020 0001605  56.4465 303.6680 15.08843807 40587,6917.869000000002,95.437,540.844,538.623,0.0
50808.0,STARLINK-3355,PAYLOAD,2022-09-28 15:25:33,15.08844586,0.0001575999999999,53.2183,46.7124,53.5218,306.5919,0.00017725,2.534e-05,0.0,0 STARLINK-3355,1 50808U 22001F   22271.64274335  .00002534  00000-0  17725-3 0  9993,2 50808  53.2183  46.7124 0001576  53.5218 306.5919 15.08844586 40626,6917.866,95.437,540.822,538.641,0.0
50808.0,STARLINK-3355,PAYLOAD,2022-09-29 12:05:34,15.08839666,0.0001628,53.2167,42.8447,70.9529,289.1639,-3.2788e-05,-8.1e-06,0.0,0 STARLINK-3355,1 50808U 22001F   22272.50387331 -.00000810  00000-0 -32788-4 0  9994,2 50808  53.2167  42.8447 0001628  70.9529 289.1639 15.08839666 42001,6917.880999999999,95.438,540.873,538.62,0.0
50808.0,STARLINK-3355,PAYLOAD,2022-09-29 18:27:07,15.08835109,0.0001641,53.2208,41.6594,52.0493,308.0647,-7.4817e-05,-1.478e-05,0.0,0 STARLINK-3355,1 50808U 22001F   22272.76883848 -.00001478  00000-0 -74817-4 0  9996,2 50808  53.2208  41.6594 0001641  52.0493 308.0647 15.08835109 40795,6917.895,95.438,540.896,538.625,0.0
50808.0,STARLINK-3355,PAYLOAD,2022-09-29 20:02:30,15.08832747,0.0001399,53.2185,41.3599,48.5228,311.5884,-9.3997e-05,-1.783e-05,0.0,0 STARLINK-3355,1 50808U 22001F   22272.83508014 -.00001783  00000-0 -93997-4 0  9992,2 50808  53.2185  41.3599 0001399  48.5228 311.5884 15.08832747 42055,6917.903,95.438,540.735,538.8,0.0
50808.0,STARLINK-3355,PAYLOAD,2022-09-30 10:20:58,15.08843977,0.0001859,53.2184,38.6843,61.8646,298.2534,-4.2075e-05,-9.58e-06,0.0,0 STARLINK-3355,1 50808U 22001F   22273.43123439 -.00000958  00000-0 -42075-4 0  9997,2 50808  53.2184  38.6843 0001859  61.8646 298.2534 15.08843977 40898,6917.868,95.437,541.019,538.447,0.0
50808.0,STARLINK-3355,PAYLOAD,2022-09-30 15:07:07,15.08850531,0.0001769,53.2181,37.7922,56.4463,303.6697,2.1794e-05,5.9e-07,0.0,0 STARLINK-3355,1 50808U 22001F   22273.62994806  .00000059  00000-0  21794-4 0  9997,2 50808  53.2181  37.7922 0001769  56.4463 303.6697 15.08850531 42178,6917.848000000001,95.437,540.937,538.489,0.0
50808.0,STARLINK-3355,PAYLOAD,2022-09-30 18:17:53,15.08854703,0.0001906,53.2181,37.1976,62.3134,297.8052,6.7011e-05,7.79e-06,0.0,0 STARLINK-3355,1 50808U 22001F   22273.76242417  .00000779  00000-0  67011-4 0  9997,2 50808  53.2181  37.1976 0001906  62.3134 297.8052 15.08854703 40942,6917.835,95.437,541.019,538.382,0.0
50808.0,STARLINK-3355,PAYLOAD,2022-10-01 13:22:31,15.08842361,0.0001694,53.2184,33.6291,52.2565,307.8581,0.00026989,4.01e-05,0.0,0 STARLINK-3355,1 50808U 22001F   22274.55730750  .00004010  00000-0  26989-3 0  9997,2 50808  53.2184  33.6291 0001694  52.2565 307.8581 15.08842361 42315,6917.873000000001,95.437,540.91,538.566,0.0
50808.0,STARLINK-3355,PAYLOAD,2022-10-01 19:44:04,15.08838465,0.0001706,53.2185,32.4397,51.9395,308.175,0.00021188,3.085e-05,0.0,0 STARLINK-3355,1 50808U 22001F   22274.82227285  .00003085  00000-0  21188-3 0  9998,2 50808  53.2185  32.4397 0001706  51.9395 308.1750 15.08838465 41109,6917.885,95.438,540.93,538.57,0.0
50808.0,STARLINK-3355,PAYLOAD,2022-10-02 08:27:09,15.08839349,0.0001938,53.2179,30.0618,72.3107,287.8096,9.4866e-06,-1.37e-06,0.0,0 STARLINK-3355,1 50808U 22001F   22275.35219310 -.00000137  00000-0  94866-5 0  9998,2 50808  53.2179  30.0618 0001938  72.3107 287.8096 15.08839349 42432,6917.882,95.438,541.0880000000002,538.4069999999998,0.0
50808.0,STARLINK-3355,PAYLOAD,2022-10-02 11:37:56,15.0883194,0.0001739,53.2182,29.466,52.2094,307.9056,-0.00019222,-3.345e-05,0.0,0 STARLINK-3355,1 50808U 22001F   22275.48467783 -.00003345  00000-0 -19222-3 0  9997,2 50808  53.2182  29.4660 0001739  52.2094 307.9056 15.08831940 41209,6917.905,95.438,540.9730000000002,538.567,0.0
50808.0,STARLINK-3355,PAYLOAD,2022-10-02 17:59:28,15.08829132,0.0001824,53.2182,28.2765,49.8601,310.2551,-0.00020307,-3.518e-05,0.0,0 STARLINK-3355,1 50808U 22001F   22275.74964098 -.00003518  00000-0 -20307-3 0  9995,2 50808  53.2182  28.2765 0001824  49.8601 310.2551 15.08829132 42492,6917.9140000000025,95.438,541.04,538.5169999999998,0.0
50808.0,STARLINK-3355,PAYLOAD,2022-10-03 00:21:01,15.08836652,0.0001718,53.2185,27.0872,52.2367,307.878,-9.7133e-05,-1.833e-05,0.0,0 STARLINK-3355,1 50808U 22001F   22276.01459677 -.00001833  00000-0 -97133-4 0  9998,2 50808  53.2185  27.0872 0001718  52.2367 307.8780 15.08836652 42536,6917.891,95.438,540.944,538.567,0.0
50808.0,STARLINK-3355,PAYLOAD,2022-10-03 11:28:42,15.08850042,0.0001769,53.2181,25.0057,51.0506,309.0643,0.00043646,6.667e-05,0.0,0 STARLINK-3355,1 50808U 22001F   22276.47827379  .00006667  00000-0  43646-3 0  9993,2 50808  53.2181  25.0057 0001769  51.0506 309.0643 15.08850042 42602,6917.85,95.437,540.938,538.491,0.0
50808.0,STARLINK-3355,PAYLOAD,2022-10-03 16:14:52,15.08857487,0.0001784,53.2181,24.1138,51.0229,309.0922,0.00056534,8.725e-05,0.0,0 STARLINK-3355,1 50808U 22001F   22276.67699172  .00008725  00000-0  56534-3 0  9990,2 50808  53.2181  24.1138 0001784  51.0229 309.0922 15.08857487 41385,6917.8269999999975,95.436,540.9259999999998,538.4580000000002,0.0
50808.0,STARLINK-3355,PAYLOAD,2022-10-04 12:54:52,15.08844262,0.0001773,53.2175,20.2479,49.1865,310.9281,0.00018963,2.732e-05,0.0,0 STARLINK-3355,1 50808U 22001F   22277.53811120  .00002732  00000-0  18963-3 0  9991,2 50808  53.2175  20.2479 0001773  49.1865 310.9281 15.08844262 42764,6917.8669999999975,95.437,540.9590000000002,538.506,0.0
50808.0,STARLINK-3355,PAYLOAD,2022-10-04 14:30:16,15.08842519,0.0001789,53.2179,19.9506,49.2623,310.8524,0.00023596,3.469e-05,0.0,0 STARLINK-3355,1 50808U 22001F   22277.60435194  .00003469  00000-0  23596-3 0  9998,2 50808  53.2179  19.9506 0001789  49.2623 310.8524 15.08842519 41529,6917.873000000001,95.437,540.975,538.5,0.0
50808.0,STARLINK-3355,PAYLOAD,2022-10-05 12:45:40,15.08833441,0.0001737,53.2188,15.7873,47.1863,312.9275,-6.8501e-06,-3.97e-06,0.0,0 STARLINK-3355,1 50808U 22001F   22278.53172163 -.00000397  00000-0 -68501-5 0  9991,2 50808  53.2188  15.7873 0001737  47.1863 312.9275 15.08833441 41661,6917.9,95.438,540.967,538.564,0.0
50808.0,STARLINK-3355,PAYLOAD,2022-10-06 12:36:26,15.08845584,0.0001585,53.219,11.327,46.3256,313.7867,7.7708e-05,9.49e-06,0.0,0 STARLINK-3355,1 50808U 22001F   22279.52531080  .00000949  00000-0  77708-4 0  9997,2 50808  53.2190  11.3270 0001585  46.3256 313.7867 15.08845584 41819,6917.863,95.437,540.825,538.632,0.0
50808.0,STARLINK-3355,PAYLOAD,2022-10-07 12:27:13,15.08844943,0.000169,53.2187,6.8666,43.0492,317.0632,9.2942e-05,1.192e-05,0.0,0 STARLINK-3355,1 50808U 22001F   22280.51891031  .00001192  00000-0  92942-4 0  9991,2 50808  53.2187   6.8666 0001690  43.0492 317.0632 15.08844943 41967,6917.865,95.437,540.899,538.561,0.0
50808.0,STARLINK-3355,PAYLOAD,2022-10-07 14:02:37,15.08832967,0.0001675999999999,53.2182,6.5698,43.7132,316.3992,0.00026698,3.963e-05,0.0,0 STARLINK-3355,1 50808U 22001F   22280.58515457  .00003963  00000-0  26698-3 0  9995,2 50808  53.2182   6.5698 0001676  43.7132 316.3992 15.08832967 41971,6917.901999999999,95.438,540.9259999999998,538.607,0.0
